{"type": "FeatureCollection", "features": [ {"type": "Feature", "properties": {"norad_id": 34400, "name": "COSMOS 2251 DEB", "group": "cosmos-2251-debris", "lat": 52.86318471629463, "lon": 29.68357645248326, "alt_km": 394.65314547031176, "timestamp": "2025-12-19T22:41:52.790149+00:00", "meta": {"OBJECT_NAME": "COSMOS 2251 DEB", "OBJECT_ID": "1993-036QR", "EPOCH": "2025-12-19T02:24:10.765440", "MEAN_MOTION": 15.56249276, "ECCENTRICITY": 0.00035402, "INCLINATION": 73.9631, "RA_OF_ASC_NODE": 9.2408, "ARG_OF_PERICENTER": 249.8598, "MEAN_ANOMALY": 110.2237, "EPHEMERIS_TYPE": 0, "CLASSIFICATION_TYPE": "U", "NORAD_CAT_ID": 34400, "ELEMENT_SET_NO": 999, "REV_AT_EPOCH": 90073, "BSTAR": 0.0028361475, "MEAN_MOTION_DOT": 0.00204436, "MEAN_MOTION_DDOT": 0}, "tle": {"line1": "1 34400U 93036QR  25353.10012460  .00204436  00000+0  28361-2 0  9994", "line2": "2 34400  73.9631   9.2408 0003540 249.8598 110.2237 15.56249276900734"}}, "geometry": {"type": "Point", "coordinates": [29.68357645248326, 52.86318471629463]}}, {"type": "Feature", "properties": {"norad_id": 34409, "name": "COSMOS 2251 DEB", "group": "cosmos-2251-debris", "lat": -31.715124706167124, "lon": -77.01891998682585, "alt_km": 660.7109106108892, "timestamp": "2025-12-19T22:41:52.790159+00:00", "meta": {"OBJECT_NAME": "COSMOS 2251 DEB", "OBJECT_ID": "1993-036RA", "EPOCH": "2025-12-19T13:47:05.606016", "MEAN_MOTION": 14.58042863, "ECCENTRICITY": 0.0080145, "INCLINATION": 74.0635, "RA_OF_ASC_NODE": 293.8566, "ARG_OF_PERICENTER": 6.3804, "MEAN_ANOMALY": 172.5975, "EPHEMERIS_TYPE": 0, "CLASSIFICATION_TYPE": "U", "NORAD_CAT_ID": 34409, "ELEMENT_SET_NO": 999, "REV_AT_EPOCH": 89292, "BSTAR": 0.00018298, "MEAN_MOTION_DOT": 8.48e-06, "MEAN_MOTION_DDOT": 0}, "tle": {"line1": "1 34409U 93036RA  25353.57437044  .00000848  00000+0  18298-3 0  9993", "line2": "2 34409  74.0635 293.8566 0080145   6.3804 172.5975 14.58042863892922"}}, "geometry": {"type": "Point", "coordinates": [-77.01891998682585, -31.715124706167124]}}, {"type": "Feature", "properties": {"norad_id": 34410, "name": "COSMOS 2251 DEB", "group": "cosmos-2251-debris", "lat": 24.970445150841666, "lon": 58.56558275275405, "alt_km": 500.313067989041, "timestamp": "2025-12-19T22:41:52.790170+00:00", "meta": {"OBJECT_NAME": "COSMOS 2251 DEB", "OBJECT_ID": "1993-036RB", "EPOCH": "2025-12-19T09:54:21.237120", "MEAN_MOTION": 15.19530067, "ECCENTRICITY": 0.0021686, "INCLINATION": 73.7379, "RA_OF_ASC_NODE": 247.5145, "ARG_OF_PERICENTER": 87.8063, "MEAN_ANOMALY": 31.2776, "EPHEMERIS_TYPE": 0, "CLASSIFICATION_TYPE": "U", "NORAD_CAT_ID": 34410, "ELEMENT_SET_NO": 999, "REV_AT_EPOCH": 89875, "BSTAR": 0.0016091, "MEAN_MOTION_DOT": 0.00034535, "MEAN_MOTION_DDOT": 0}, "tle": {"line1": "1 34410U 93036RB  25353.41274580  .00034535  00000+0  16091-2 0  9990", "line2": "2 34410  73.7379 247.5145 0021686  87.8063  31.2776 15.19530067898753"}}, "geometry": {"type": "Point", "coordinates": [58.56558275275405, 24.970445150841666]}}, {"type": "Feature", "properties": {"norad_id": 34412, "name": "COSMOS 2251 DEB", "group": "cosmos-2251-debris", "lat": -68.07439142723783, "lon": 176.72248974064584, "alt_km": 856.0126736285965, "timestamp": "2025-12-19T22:41:52.790180+00:00", "meta": {"OBJECT_NAME": "COSMOS 2251 DEB", "OBJECT_ID": "1993-036RD", "EPOCH": "2025-12-18T22:17:58.894368", "MEAN_MOTION": 14.47204524, "ECCENTRICITY": 0.0187392, "INCLINATION": 73.9485, "RA_OF_ASC_NODE": 312.9686, "ARG_OF_PERICENTER": 46.6025, "MEAN_ANOMALY": 315.0563, "EPHEMERIS_TYPE": 0, "CLASSIFICATION_TYPE": "U", "NORAD_CAT_ID": 34412, "ELEMENT_SET_NO": 999, "REV_AT_EPOCH": 87740, "BSTAR": 0.0011675289, "MEAN_MOTION_DOT": 5.289e-05, "MEAN_MOTION_DDOT": 0}, "tle": {"line1": "1 34412U 93036RD  25352.92915387  .00005289  00000+0  11675-2 0  9991", "line2": "2 34412  73.9485 312.9686 0187392  46.6025 315.0563 14.47204524877402"}}, "geometry": {"type": "Point", "coordinates": [176.72248974064584, -68.07439142723783]}}, {"type": "Feature", "properties": {"norad_id": 34413, "name": "COSMOS 2251 DEB", "group": "cosmos-2251-debris", "lat": -71.67725056165398, "lon": -168.05686085459317, "alt_km": 757.3459020454657, "timestamp": "2025-12-19T22:41:52.790191+00:00", "meta": {"OBJECT_NAME": "COSMOS 2251 DEB", "OBJECT_ID": "1993-036RE", "EPOCH": "2025-12-19T03:37:01.824384", "MEAN_MOTION": 14.29145308, "ECCENTRICITY": 0.00909812, "INCLINATION": 74.0307, "RA_OF_ASC_NODE": 253.2338, "ARG_OF_PERICENTER": 328.5293, "MEAN_ANOMALY": 182.5817, "EPHEMERIS_TYPE": 0, "CLASSIFICATION_TYPE": "U", "NORAD_CAT_ID": 34413, "ELEMENT_SET_NO": 999, "REV_AT_EPOCH": 87222, "BSTAR": 0.0011272931, "MEAN_MOTION_DOT": 2.965e-05, "MEAN_MOTION_DDOT": 0}, "tle": {"line1": "1 34413U 93036RE  25353.15071556  .00002965  00000+0  11273-2 0  9991", "line2": "2 34413  74.0307 253.2338 0090981 328.5293 182.5817 14.29145308872223"}}, "geometry": {"type": "Point", "coordinates": [-168.05686085459317, -71.67725056165398]}}, {"type": "Feature", "properties": {"norad_id": 34420, "name": "COSMOS 2251 DEB", "group": "cosmos-2251-debris", "lat": -48.00262781628903, "lon": 71.47834697075722, "alt_km": 685.1585785978432, "timestamp": "2025-12-19T22:41:52.790202+00:00", "meta": {"OBJECT_NAME": "COSMOS 2251 DEB", "OBJECT_ID": "1993-036RM", "EPOCH": "2025-12-19T17:04:45.185376", "MEAN_MOTION": 14.68316706, "ECCENTRICITY": 0.010634, "INCLINATION": 74.0332, "RA_OF_ASC_NODE": 90.4735, "ARG_OF_PERICENTER": 209.9738, "MEAN_ANOMALY": 301.2677, "EPHEMERIS_TYPE": 0, "CLASSIFICATION_TYPE": "U", "NORAD_CAT_ID": 34420, "ELEMENT_SET_NO": 999, "REV_AT_EPOCH": 89872, "BSTAR": 0.00016304, "MEAN_MOTION_DOT": 9.89e-06, "MEAN_MOTION_DDOT": 0}, "tle": {"line1": "1 34420U 93036RM  25353.71163409  .00000989  00000+0  16304-3 0  9995", "line2": "2 34420  74.0332  90.4735 0106340 209.9738 301.2677 14.68316706898726"}}, "geometry": {"type": "Point", "coordinates": [71.47834697075722, -48.00262781628903]}}, {"type": "Feature", "properties": {"norad_id": 34425, "name": "COSMOS 2251 DEB", "group": "cosmos-2251-debris", "lat": -53.17433059439312, "lon": -116.79391059692327, "alt_km": 687.1791923896108, "timestamp": "2025-12-19T22:41:52.790212+00:00", "meta": {"OBJECT_NAME": "COSMOS 2251 DEB", "OBJECT_ID": "1993-036RS", "EPOCH": "2025-12-19T11:46:10.943616", "MEAN_MOTION": 14.62163051, "ECCENTRICITY": 0.0024449, "INCLINATION": 74.0195, "RA_OF_ASC_NODE": 41.5772, "ARG_OF_PERICENTER": 166.2561, "MEAN_ANOMALY": 193.9277, "EPHEMERIS_TYPE": 0, "CLASSIFICATION_TYPE": "U", "NORAD_CAT_ID": 34425, "ELEMENT_SET_NO": 999, "REV_AT_EPOCH": 88839, "BSTAR": 0.00035926, "MEAN_MOTION_DOT": 1.785e-05, "MEAN_MOTION_DDOT": 0}, "tle": {"line1": "1 34425U 93036RS  25353.49040444  .00001785  00000+0  35926-3 0  9994", "line2": "2 34425  74.0195  41.5772 0024449 166.2561 193.9277 14.62163051888395"}}, "geometry": {"type": "Point", "coordinates": [-116.79391059692327, -53.17433059439312]}}, {"type": "Feature", "properties": {"norad_id": 34429, "name": "COSMOS 2251 DEB", "group": "cosmos-2251-debris", "lat": -47.72532199350863, "lon": -9.25615986971679, "alt_km": 443.1969142750795, "timestamp": "2025-12-19T22:41:52.790222+00:00", "meta": {"OBJECT_NAME": "COSMOS 2251 DEB", "OBJECT_ID": "1993-036RW", "EPOCH": "2025-12-19T12:37:59.714112", "MEAN_MOTION": 15.44301435, "ECCENTRICITY": 0.0010491, "INCLINATION": 73.9675, "RA_OF_ASC_NODE": 153.2196, "ARG_OF_PERICENTER": 352.9418, "MEAN_ANOMALY": 66.8806, "EPHEMERIS_TYPE": 0, "CLASSIFICATION_TYPE": "U", "NORAD_CAT_ID": 34429, "ELEMENT_SET_NO": 999, "REV_AT_EPOCH": 89553, "BSTAR": 0.0041473, "MEAN_MOTION_DOT": 0.00196298, "MEAN_MOTION_DDOT": 0}, "tle": {"line1": "1 34429U 93036RW  25353.52638558  .00196298  00000+0  41473-2 0  9998", "line2": "2 34429  73.9675 153.2196 0010491 352.9418  66.8806 15.44301435895539"}}, "geometry": {"type": "Point", "coordinates": [-9.25615986971679, -47.72532199350863]}}, {"type": "Feature", "properties": {"norad_id": 34430, "name": "COSMOS 2251 DEB", "group": "cosmos-2251-debris", "lat": 24.368566078304834, "lon": 102.62466073229133, "alt_km": 798.3327831958886, "timestamp": "2025-12-19T22:41:52.790233+00:00", "meta": {"OBJECT_NAME": "COSMOS 2251 DEB", "OBJECT_ID": "1993-036RX", "EPOCH": "2025-12-19T13:38:43.271232", "MEAN_MOTION": 14.39651864, "ECCENTRICITY": 0.0060677, "INCLINATION": 74.0517, "RA_OF_ASC_NODE": 290.7625, "ARG_OF_PERICENTER": 358.7811, "MEAN_ANOMALY": 1.3185, "EPHEMERIS_TYPE": 0, "CLASSIFICATION_TYPE": "U", "NORAD_CAT_ID": 34430, "ELEMENT_SET_NO": 999, "REV_AT_EPOCH": 88053, "BSTAR": 0.00034124, "MEAN_MOTION_DOT": 1.064e-05, "MEAN_MOTION_DDOT": 0}, "tle": {"line1": "1 34430U 93036RX  25353.56855638  .00001064  00000+0  34124-3 0  9996", "line2": "2 34430  74.0517 290.7625 0060677 358.7811   1.3185 14.39651864880539"}}, "geometry": {"type": "Point", "coordinates": [102.62466073229133, 24.368566078304834]}}, {"type": "Feature", "properties": {"norad_id": 34431, "name": "COSMOS 2251 DEB", "group": "cosmos-2251-debris", "lat": 43.2957958873996, "lon": -33.45098739965073, "alt_km": 743.9634544573482, "timestamp": "2025-12-19T22:41:52.790243+00:00", "meta": {"OBJECT_NAME": "COSMOS 2251 DEB", "OBJECT_ID": "1993-036RY", "EPOCH": "2025-12-19T10:18:33.991776", "MEAN_MOTION": 14.28795408, "ECCENTRICITY": 0.0068008, "INCLINATION": 74.0737, "RA_OF_ASC_NODE": 163.0901, "ARG_OF_PERICENTER": 147.0162, "MEAN_ANOMALY": 213.5258, "EPHEMERIS_TYPE": 0, "CLASSIFICATION_TYPE": "U", "NORAD_CAT_ID": 34431, "ELEMENT_SET_NO": 999, "REV_AT_EPOCH": 87238, "BSTAR": 0.00050275, "MEAN_MOTION_DOT": 1.274e-05, "MEAN_MOTION_DDOT": 0}, "tle": {"line1": "1 34431U 93036RY  25353.42956009  .00001274  00000+0  50275-3 0  9994", "line2": "2 34431  74.0737 163.0901 0068008 147.0162 213.5258 14.28795408872380"}}, "geometry": {"type": "Point", "coordinates": [-33.45098739965073, 43.2957958873996]}}]}